{
  "norad_id": 56419,
  "name": "STARLINK-5350",
  "history": [
    {
      "epoch": "2026-03-28T20:00:01.999872Z",
      "apogee_km": 499.201721292392,
      "perigee_km": 497.2596975239003,
      "latitude_deg": 42.920056196791634,
      "longitude_deg": 34.90619245656358,
      "height_km": 502.28697388097714,
      "semi_major_axis_km": 6876.367709408146,
      "eccentricity": 0.00014121,
      "inclination_deg": 43.0038,
      "raan_deg": 78.6042,
      "arg_perigee_deg": 275.6289,
      "mean_anomaly_deg": 168.9174,
      "mean_motion_rev_day": 15.22523917
    },
    {
      "epoch": "2026-03-29T04:00:01.999584Z",
      "apogee_km": 496.8984872489327,
      "perigee_km": 494.94762900443675,
      "latitude_deg": 38.76905746197994,
      "longitude_deg": -48.77669219068572,
      "height_km": 498.99711978659246,
      "semi_major_axis_km": 6874.060058126684,
      "eccentricity": 0.0001419,
      "inclination_deg": 43.0,
      "raan_deg": 76.7346,
      "arg_perigee_deg": 321.6047,
      "mean_anomaly_deg": 152.1468,
      "mean_motion_rev_day": 15.23290658
    },
    {
      "epoch": "2026-03-30T04:00:01.999584Z",
      "apogee_km": 494.3631876006657,
      "perigee_km": 493.00256726493444,
      "latitude_deg": -16.679941807320834,
      "longitude_deg": 22.19153688033755,
      "height_km": 496.57680721722363,
      "semi_major_axis_km": 6871.819877432799,
      "eccentricity": 9.9e-05,
      "inclination_deg": 42.9994,
      "raan_deg": 71.1264,
      "arg_perigee_deg": 246.8146,
      "mean_anomaly_deg": 317.8609,
      "mean_motion_rev_day": 15.24035597
    },
    {
      "epoch": "2026-03-30T06:00:02.000160Z",
      "apogee_km": 494.27011694155226,
      "perigee_km": 492.48159957480493,
      "latitude_deg": -35.3222186074262,
      "longitude_deg": 103.91826682152696,
      "height_km": 502.8676524341236,
      "semi_major_axis_km": 6871.512858258178,
      "eccentricity": 0.00013014,
      "inclination_deg": 43.0002,
      "raan_deg": 70.6586,
      "arg_perigee_deg": 258.173,
      "mean_anomaly_deg": 44.2397,
      "mean_motion_rev_day": 15.24137739
    },
    {
      "epoch": "2026-03-30T14:00:03.000384Z",
      "apogee_km": 493.31124393381106,
      "perigee_km": 491.5121220556821,
      "latitude_deg": -17.6701594512145,
      "longitude_deg": 10.935238079072743,
      "height_km": 495.4603976597396,
      "semi_major_axis_km": 6870.548682994746,
      "eccentricity": 0.00013093,
      "inclination_deg": 43.0004,
      "raan_deg": 68.7813,
      "arg_perigee_deg": 289.9615,
      "mean_anomaly_deg": 43.8293,
      "mean_motion_rev_day": 15.24458584
    },
    {
      "epoch": "2026-03-30T22:00:00.999936Z",
      "apogee_km": 492.4263464610931,
      "perigee_km": 490.49228031502116,
      "latitude_deg": 3.6453797446700085,
      "longitude_deg": -87.50101518067518,
      "height_km": 490.94818991238503,
      "semi_major_axis_km": 6869.596313388057,
      "eccentricity": 0.00014077,
      "inclination_deg": 42.9998,
      "raan_deg": 66.9088,
      "arg_perigee_deg": 268.7013,
      "mean_anomaly_deg": 96.6849,
      "mean_motion_rev_day": 15.24775611
    },
    {
      "epoch": "2026-03-31T20:00:01.999008Z",
      "apogee_km": 489.25001765261914,
      "perigee_km": 487.61028141731003,
      "latitude_deg": 3.3219887894339606,
      "longitude_deg": -63.91751068963206,
      "height_km": 487.67567127326873,
      "semi_major_axis_km": 6866.567149534964,
      "eccentricity": 0.0001194,
      "inclination_deg": 42.9999,
      "raan_deg": 61.7469,
      "arg_perigee_deg": 286.1839,
      "mean_anomaly_deg": 78.7326,
      "mean_motion_rev_day": 15.25784697
    },
    {
      "epoch": "2026-04-01T20:00:01.999008Z",
      "apogee_km": 486.3446469587243,
      "perigee_km": 485.0542457068141,
      "latitude_deg": 41.04215847708744,
      "longitude_deg": 37.72312036309298,
      "height_km": 489.0129216254126,
      "semi_major_axis_km": 6863.836446332769,
      "eccentricity": 9.4e-05,
      "inclination_deg": 43.0002,
      "raan_deg": 56.1121,
      "arg_perigee_deg": 271.2409,
      "mean_anomaly_deg": 195.0578,
      "mean_motion_rev_day": 15.26695313
    },
    {
      "epoch": "2026-04-02T20:00:01.999008Z",
      "apogee_km": 486.2921948864496,
      "perigee_km": 484.9468986032871,
      "latitude_deg": -19.45640419868054,
      "longitude_deg": 121.41918037885169,
      "height_km": 489.4516074702204,
      "semi_major_axis_km": 6863.7565467448685,
      "eccentricity": 9.8e-05,
      "inclination_deg": 43.0005,
      "raan_deg": 50.4726,
      "arg_perigee_deg": 259.7903,
      "mean_anomaly_deg": 309.2113,
      "mean_motion_rev_day": 15.26721971
    },
    {
      "epoch": "2026-04-02T22:00:01.999584Z",
      "apogee_km": 486.17026526879454,
      "perigee_km": 485.04461118092604,
      "latitude_deg": -32.89703290370489,
      "longitude_deg": -154.87980997647077,
      "height_km": 494.5213101692684,
      "semi_major_axis_km": 6863.7444382248605,
      "eccentricity": 8.2e-05,
      "inclination_deg": 43.0007,
      "raan_deg": 50.0032,
      "arg_perigee_deg": 243.0849,
      "mean_anomaly_deg": 64.4787,
      "mean_motion_rev_day": 15.26726011
    },
    {
      "epoch": "2026-04-03T20:00:01.999008Z",
      "apogee_km": 486.2964198169184,
      "perigee_km": 485.25859594332815,
      "latitude_deg": -30.75815743857923,
      "longitude_deg": -126.73248206032967,
      "height_km": 493.7719762359945,
      "semi_major_axis_km": 6863.914507880123,
      "eccentricity": 7.56e-05,
      "inclination_deg": 43.0007,
      "raan_deg": 44.8328,
      "arg_perigee_deg": 259.6468,
      "mean_anomaly_deg": 52.1009,
      "mean_motion_rev_day": 15.26669269
    },
    {
      "epoch": "2026-04-04T20:00:01.999008Z",
      "apogee_km": 486.13476302755316,
      "perigee_km": 485.1010815362579,
      "latitude_deg": 33.79370789676588,
      "longitude_deg": -48.424346949671545,
      "height_km": 487.33818533553676,
      "semi_major_axis_km": 6863.754922281905,
      "eccentricity": 7.53e-05,
      "inclination_deg": 43.0009,
      "raan_deg": 39.1923,
      "arg_perigee_deg": 253.4505,
      "mean_anomaly_deg": 160.9174,
      "mean_motion_rev_day": 15.26722513
    },
    {
      "epoch": "2026-04-05T13:02:06.772416Z",
      "apogee_km": 486.1927939397019,
      "perigee_km": 484.942226977897,
      "latitude_deg": -7.966802703133468e-06,
      "longitude_deg": 5.815643086229919,
      "height_km": 485.38569324939675,
      "semi_major_axis_km": 6863.7045104588,
      "eccentricity": 9.11e-05,
      "inclination_deg": 42.9989,
      "raan_deg": 35.1911,
      "arg_perigee_deg": 266.1533,
      "mean_anomaly_deg": 93.9214,
      "mean_motion_rev_day": 15.26739333
    },
    {
      "epoch": "2026-04-06T04:44:11.751072Z",
      "apogee_km": 486.051117328936,
      "perigee_km": 485.0698831343034,
      "latitude_deg": 3.330568794558212e-05,
      "longitude_deg": 125.95790850726252,
      "height_km": 485.41725857304357,
      "semi_major_axis_km": 6863.697500231619,
      "eccentricity": 7.148e-05,
      "inclination_deg": 43.0009,
      "raan_deg": 31.4989,
      "arg_perigee_deg": 260.5566,
      "mean_anomaly_deg": 99.5205,
      "mean_motion_rev_day": 15.26741672
    },
    {
      "epoch": "2026-04-07T12:08:20.590368Z",
      "apogee_km": 486.040927295483,
      "perigee_km": 485.0204371844875,
      "latitude_deg": 5.572079386859742e-05,
      "longitude_deg": 6.2523455205235265,
      "height_km": 485.4421659940921,
      "semi_major_axis_km": 6863.667682239985,
      "eccentricity": 7.434e-05,
      "inclination_deg": 43.0009,
      "raan_deg": 24.1198,
      "arg_perigee_deg": 254.6321,
      "mean_anomaly_deg": 105.4449,
      "mean_motion_rev_day": 15.26751621
    },
    {
      "epoch": "2026-04-08T11:41:27.809088Z",
      "apogee_km": 486.3440996475074,
      "perigee_km": 484.78137249159954,
      "latitude_deg": 2.673794469909443e-05,
      "longitude_deg": 6.468687173146245,
      "height_km": 485.5676197080867,
      "semi_major_axis_km": 6863.699736069553,
      "eccentricity": 0.00011384,
      "inclination_deg": 43.0034,
      "raan_deg": 18.5835,
      "arg_perigee_deg": 253.0329,
      "mean_anomaly_deg": 107.0398,
      "mean_motion_rev_day": 15.26740926
    },
    {
      "epoch": "2026-04-09T11:14:34.781568Z",
      "apogee_km": 486.04407729724426,
      "perigee_km": 485.0385484244098,
      "latitude_deg": -2.4674949933209145e-05,
      "longitude_deg": 6.688833727673007,
      "height_km": 485.47017296878533,
      "semi_major_axis_km": 6863.678312860827,
      "eccentricity": 7.325e-05,
      "inclination_deg": 43.0015,
      "raan_deg": 13.05,
      "arg_perigee_deg": 252.3376,
      "mean_anomaly_deg": 107.7395,
      "mean_motion_rev_day": 15.26748074
    },
    {
      "epoch": "2026-04-10T02:56:39.869952Z",
      "apogee_km": 485.9808957256446,
      "perigee_km": 485.1428380939942,
      "latitude_deg": 5.9965829963134405e-05,
      "longitude_deg": 126.83078641367048,
      "height_km": 485.5512456037153,
      "semi_major_axis_km": 6863.698866909819,
      "eccentricity": 6.105e-05,
      "inclination_deg": 43.0008,
      "raan_deg": 9.3579,
      "arg_perigee_deg": 239.3975,
      "mean_anomaly_deg": 120.6817,
      "mean_motion_rev_day": 15.26741216
    },
    {
      "epoch": "2026-04-11T02:29:47.147424Z",
      "apogee_km": 486.1189963886518,
      "perigee_km": 485.007488771369,
      "latitude_deg": -8.322171508093361e-06,
      "longitude_deg": 127.04784138170777,
      "height_km": 485.61853231528016,
      "semi_major_axis_km": 6863.70024258001,
      "eccentricity": 8.097e-05,
      "inclination_deg": 43.0022,
      "raan_deg": 3.8226,
      "arg_perigee_deg": 239.8768,
      "mean_anomaly_deg": 120.2003,
      "mean_motion_rev_day": 15.26740757
    }
  ]
}